{"type": "FeatureCollection", "features": [ {"type": "Feature", "properties": {"norad_id": 66577, "name": "STARLINK-35815", "group": "last-30-days", "lat": 6.080687370741808, "lon": 148.14356765371184, "alt_km": 414.0762723937514, "timestamp": "2025-12-09T05:43:19.509890+00:00", "meta": {"OBJECT_NAME": "STARLINK-35815", "OBJECT_ID": "2025-268W", "EPOCH": "2025-12-08T20:00:01.999008", "MEAN_MOTION": 15.52087914, "ECCENTRICITY": 0.0001463, "INCLINATION": 43.0006, "RA_OF_ASC_NODE": 143.9517, "ARG_OF_PERICENTER": 273.0566, "MEAN_ANOMALY": 351.0832, "EPHEMERIS_TYPE": 0, "CLASSIFICATION_TYPE": "U", "NORAD_CAT_ID": 66577, "ELEMENT_SET_NO": 999, "REV_AT_EPOCH": 404, "BSTAR": -0.032123, "MEAN_MOTION_DOT": -0.01769274, "MEAN_MOTION_DDOT": 0}, "tle": {"line1": "1 66577U 25268W   25342.83335647 -.01769274  00000+0 -32123-1 0  9998", "line2": "2 66577  43.0006 143.9517 0001463 273.0566 351.0832 15.52087914  4041"}}, "geometry": {"type": "Point", "coordinates": [148.14356765371184, 6.080687370741808]}}, {"type": "Feature", "properties": {"norad_id": 66578, "name": "STARLINK-35743", "group": "last-30-days", "lat": 7.377123544467747, "lon": 149.5608084330651, "alt_km": 413.86977655912415, "timestamp": "2025-12-09T05:43:19.509900+00:00", "meta": {"OBJECT_NAME": "STARLINK-35743", "OBJECT_ID": "2025-268X", "EPOCH": "2025-12-08T20:00:01.999008", "MEAN_MOTION": 15.52085404, "ECCENTRICITY": 0.0001475, "INCLINATION": 43.0006, "RA_OF_ASC_NODE": 143.9468, "ARG_OF_PERICENTER": 275.5797, "MEAN_ANOMALY": 350.4775, "EPHEMERIS_TYPE": 0, "CLASSIFICATION_TYPE": "U", "NORAD_CAT_ID": 66578, "ELEMENT_SET_NO": 999, "REV_AT_EPOCH": 404, "BSTAR": -0.032053, "MEAN_MOTION_DOT": -0.01765713, "MEAN_MOTION_DDOT": 0}, "tle": {"line1": "1 66578U 25268X   25342.83335647 -.01765713  00000+0 -32053-1 0  9995", "line2": "2 66578  43.0006 143.9468 0001475 275.5797 350.4775 15.52085404  4044"}}, "geometry": {"type": "Point", "coordinates": [149.5608084330651, 7.377123544467747]}}, {"type": "Feature", "properties": {"norad_id": 66579, "name": "STARLINK-35868", "group": "last-30-days", "lat": 8.669748386863539, "lon": 150.98727368175298, "alt_km": 413.7844969383377, "timestamp": "2025-12-09T05:43:19.509913+00:00", "meta": {"OBJECT_NAME": "STARLINK-35868", "OBJECT_ID": "2025-268Y", "EPOCH": "2025-12-08T20:00:01.999008", "MEAN_MOTION": 15.52088443, "ECCENTRICITY": 0.00016, "INCLINATION": 43.0006, "RA_OF_ASC_NODE": 143.942, "ARG_OF_PERICENTER": 273.3753, "MEAN_ANOMALY": 354.5954, "EPHEMERIS_TYPE": 0, "CLASSIFICATION_TYPE": "U", "NORAD_CAT_ID": 66579, "ELEMENT_SET_NO": 999, "REV_AT_EPOCH": 404, "BSTAR": -0.032105, "MEAN_MOTION_DOT": -0.01768492, "MEAN_MOTION_DDOT": 0}, "tle": {"line1": "1 66579U 25268Y   25342.83335647 -.01768492  00000+0 -32105-1 0  9991", "line2": "2 66579  43.0006 143.9420 0001600 273.3753 354.5954 15.52088443  4041"}}, "geometry": {"type": "Point", "coordinates": [150.98727368175298, 8.669748386863539]}}, {"type": "Feature", "properties": {"norad_id": 66580, "name": "STARLINK-35872", "group": "last-30-days", "lat": 9.95623037246354, "lon": 152.42336550931955, "alt_km": 413.6827118813944, "timestamp": "2025-12-09T05:43:19.509924+00:00", "meta": {"OBJECT_NAME": "STARLINK-35872", "OBJECT_ID": "2025-268Z", "EPOCH": "2025-12-08T20:00:01.999008", "MEAN_MOTION": 15.52087673, "ECCENTRICITY": 0.0001461, "INCLINATION": 43.0005, "RA_OF_ASC_NODE": 143.9378, "ARG_OF_PERICENTER": 270.6566, "MEAN_ANOMALY": 359.2328, "EPHEMERIS_TYPE": 0, "CLASSIFICATION_TYPE": "U", "NORAD_CAT_ID": 66580, "ELEMENT_SET_NO": 999, "REV_AT_EPOCH": 404, "BSTAR": -0.032094, "MEAN_MOTION_DOT": -0.01767854, "MEAN_MOTION_DDOT": 0}, "tle": {"line1": "1 66580U 25268Z   25342.83335647 -.01767854  00000+0 -32094-1 0  9991", "line2": "2 66580  43.0005 143.9378 0001461 270.6566 359.2328 15.52087673  4042"}}, "geometry": {"type": "Point", "coordinates": [152.42336550931955, 9.95623037246354]}}, {"type": "Feature", "properties": {"norad_id": 66581, "name": "STARLINK-35744", "group": "last-30-days", "lat": 11.23708038902062, "lon": 153.86988193065537, "alt_km": 413.5302834382601, "timestamp": "2025-12-09T05:43:19.509934+00:00", "meta": {"OBJECT_NAME": "STARLINK-35744", "OBJECT_ID": "2025-268AA", "EPOCH": "2025-12-08T20:00:01.999008", "MEAN_MOTION": 15.52089552, "ECCENTRICITY": 0.000153, "INCLINATION": 43.0007, "RA_OF_ASC_NODE": 143.9321, "ARG_OF_PERICENTER": 271.3923, "MEAN_ANOMALY": 0.4131, "EPHEMERIS_TYPE": 0, "CLASSIFICATION_TYPE": "U", "NORAD_CAT_ID": 66581, "ELEMENT_SET_NO": 999, "REV_AT_EPOCH": 399, "BSTAR": -0.032165, "MEAN_MOTION_DOT": -0.01771462, "MEAN_MOTION_DDOT": 0}, "tle": {"line1": "1 66581U 25268AA  25342.83335647 -.01771462  00000+0 -32165-1 0  9991", "line2": "2 66581  43.0007 143.9321 0001530 271.3923   0.4131 15.52089552  3993"}}, "geometry": {"type": "Point", "coordinates": [153.86988193065537, 11.23708038902062]}}, {"type": "Feature", "properties": {"norad_id": 66582, "name": "STARLINK-35746", "group": "last-30-days", "lat": 12.511191532749935, "lon": 155.33075464210577, "alt_km": 413.3506304884095, "timestamp": "2025-12-09T05:43:19.509947+00:00", "meta": {"OBJECT_NAME": "STARLINK-35746", "OBJECT_ID": "2025-268AB", "EPOCH": "2025-12-08T20:00:01.999008", "MEAN_MOTION": 15.52089793, "ECCENTRICITY": 0.0001513, "INCLINATION": 43.0006, "RA_OF_ASC_NODE": 143.9273, "ARG_OF_PERICENTER": 272.6138, "MEAN_ANOMALY": 1.1102, "EPHEMERIS_TYPE": 0, "CLASSIFICATION_TYPE": "U", "NORAD_CAT_ID": 66582, "ELEMENT_SET_NO": 999, "REV_AT_EPOCH": 404, "BSTAR": -0.032202, "MEAN_MOTION_DOT": -0.01773283, "MEAN_MOTION_DDOT": 0}, "tle": {"line1": "1 66582U 25268AB  25342.83335647 -.01773283  00000+0 -32202-1 0  9997", "line2": "2 66582  43.0006 143.9273 0001513 272.6138   1.1102 15.52089793  4042"}}, "geometry": {"type": "Point", "coordinates": [155.33075464210577, 12.511191532749935]}}, {"type": "Feature", "properties": {"norad_id": 66583, "name": "STARLINK-35941", "group": "last-30-days", "lat": 13.777036094923215, "lon": 156.8057236063884, "alt_km": 413.1786603798291, "timestamp": "2025-12-09T05:43:19.509959+00:00", "meta": {"OBJECT_NAME": "STARLINK-35941", "OBJECT_ID": "2025-268AC", "EPOCH": "2025-12-08T20:00:01.999008", "MEAN_MOTION": 15.52087625, "ECCENTRICITY": 0.0001553, "INCLINATION": 43.0007, "RA_OF_ASC_NODE": 143.9225, "ARG_OF_PERICENTER": 273.8319, "MEAN_ANOMALY": 1.8106, "EPHEMERIS_TYPE": 0, "CLASSIFICATION_TYPE": "U", "NORAD_CAT_ID": 66583, "ELEMENT_SET_NO": 999, "REV_AT_EPOCH": 404, "BSTAR": -0.032172, "MEAN_MOTION_DOT": -0.01771738, "MEAN_MOTION_DDOT": 0}, "tle": {"line1": "1 66583U 25268AC  25342.83335647 -.01771738  00000+0 -32172-1 0  9997", "line2": "2 66583  43.0007 143.9225 0001553 273.8319   1.8106 15.52087625  4042"}}, "geometry": {"type": "Point", "coordinates": [156.8057236063884, 13.777036094923215]}}, {"type": "Feature", "properties": {"norad_id": 66584, "name": "STARLINK-35939", "group": "last-30-days", "lat": 15.033501345297195, "lon": 158.29676524089956, "alt_km": 413.06426702614317, "timestamp": "2025-12-09T05:43:19.509970+00:00", "meta": {"OBJECT_NAME": "STARLINK-35939", "OBJECT_ID": "2025-268AD", "EPOCH": "2025-12-08T20:00:01.999008", "MEAN_MOTION": 15.52086284, "ECCENTRICITY": 0.0001576, "INCLINATION": 43.0007, "RA_OF_ASC_NODE": 143.9182, "ARG_OF_PERICENTER": 272.4011, "MEAN_ANOMALY": 5.1583, "EPHEMERIS_TYPE": 0, "CLASSIFICATION_TYPE": "U", "NORAD_CAT_ID": 66584, "ELEMENT_SET_NO": 999, "REV_AT_EPOCH": 404, "BSTAR": -0.032138, "MEAN_MOTION_DOT": -0.01770014, "MEAN_MOTION_DDOT": 0}, "tle": {"line1": "1 66584U 25268AD  25342.83335647 -.01770014  00000+0 -32138-1 0  9996", "line2": "2 66584  43.0007 143.9182 0001576 272.4011   5.1583 15.52086284  4040"}}, "geometry": {"type": "Point", "coordinates": [158.29676524089956, 15.033501345297195]}}, {"type": "Feature", "properties": {"norad_id": 66585, "name": "STARLINK-35963", "group": "last-30-days", "lat": 16.28323572617781, "lon": 159.80901218183357, "alt_km": 412.76404150548296, "timestamp": "2025-12-09T05:43:19.509983+00:00", "meta": {"OBJECT_NAME": "STARLINK-35963", "OBJECT_ID": "2025-268AE", "EPOCH": "2025-12-08T20:00:01.999008", "MEAN_MOTION": 15.52090942, "ECCENTRICITY": 0.0001554, "INCLINATION": 43.0007, "RA_OF_ASC_NODE": 143.9136, "ARG_OF_PERICENTER": 277.6544, "MEAN_ANOMALY": 1.8183, "EPHEMERIS_TYPE": 0, "CLASSIFICATION_TYPE": "U", "NORAD_CAT_ID": 66585, "ELEMENT_SET_NO": 999, "REV_AT_EPOCH": 404, "BSTAR": -0.032111, "MEAN_MOTION_DOT": -0.017689, "MEAN_MOTION_DDOT": 0}, "tle": {"line1": "1 66585U 25268AE  25342.83335647 -.01768900  00000+0 -32111-1 0  9999", "line2": "2 66585  43.0007 143.9136 0001554 277.6544   1.8183 15.52090942  4049"}}, "geometry": {"type": "Point", "coordinates": [159.80901218183357, 16.28323572617781]}}, {"type": "Feature", "properties": {"norad_id": 66586, "name": "TJS-21", "group": "last-30-days", "lat": 6.551260133621803, "lon": 166.06229181070964, "alt_km": 9291.313333016522, "timestamp": "2025-12-09T05:43:19.509995+00:00", "meta": {"OBJECT_NAME": "TJS-21", "OBJECT_ID": "2025-269A", "EPOCH": "2025-12-07T17:43:38.148672", "MEAN_MOTION": 2.00608507, "ECCENTRICITY": 0.6806665, "INCLINATION": 63.2904, "RA_OF_ASC_NODE": 162.9189, "ARG_OF_PERICENTER": 269.7757, "MEAN_ANOMALY": 18.6616, "EPHEMERIS_TYPE": 0, "CLASSIFICATION_TYPE": "U", "NORAD_CAT_ID": 66586, "ELEMENT_SET_NO": 999, "REV_AT_EPOCH": 33, "BSTAR": 3.2363, "MEAN_MOTION_DOT": 1.641e-05, "MEAN_MOTION_DDOT": 0}, "tle": {"line1": "1 66586U 25269A   25341.73863598  .00001641  00000+0  32363+1 0  9997", "line2": "2 66586  63.2904 162.9189 6806665 269.7757  18.6616  2.00608507   335"}}, "geometry": {"type": "Point", "coordinates": [166.06229181070964, 6.551260133621803]}}]}